[
    {
        "Altitude(m)": 607886.6990188304,
        "Argument of Periapsis(deg)": 0.0,
        "Eccentricity": 0.0,
        "Inclination(deg)": 60.0,
        "Latitude(deg)": 40.998464159451466,
        "Longitude(deg)": -0.02714454285045094,
        "Mean Anomaly(deg)": 49.09089999999999,
        "RAAN(deg)": 70.0,
        "Satellite Name": "Test1 311",
        "Satellite Number": 311,
        "Semi-Major Axis(m)": 6980739.136638005,
        "Time(s)": 0
    },
    {
        "Altitude(m)": 607987.6135448571,
        "Argument of Periapsis(deg)": 0.00010418945913296404,
        "Eccentricity": 0.0,
        "Inclination(deg)": 60.0,
        "Latitude(deg)": 41.4635554977992,
        "Longitude(deg)": 0.47708144315684886,
        "Mean Anomaly(deg)": 49.71100614546181,
        "RAAN(deg)": 69.99957995086027,
        "Satellite Name": "Test1 311",
        "Satellite Number": 311,
        "Semi-Major Axis(m)": 6980739.136638005,
        "Time(s)": 10
    }
]